[
    {
        "Altitude(m)": 610399.5021579444,
        "Argument of Periapsis(deg)": 0.0,
        "Eccentricity": 0.0,
        "Inclination(deg)": 60.0,
        "Latitude(deg)": 52.111261339776526,
        "Longitude(deg)": -67.4157453578809,
        "Mean Anomaly(deg)": -294.5455,
        "RAAN(deg)": 345.0,
        "Satellite Name": "Test1 1522",
        "Satellite Number": 1522,
        "Semi-Major Axis(m)": 6980739.136638005,
        "Time(s)": 0
    },
    {
        "Altitude(m)": 610481.6535302717,
        "Argument of Periapsis(deg)": 0.00010418945913296404,
        "Eccentricity": 0.0,
        "Inclination(deg)": 60.0,
        "Latitude(deg)": 52.47086415198709,
        "Longitude(deg)": -66.63361110325874,
        "Mean Anomaly(deg)": -293.9253938545382,
        "RAAN(deg)": 344.99957995086027,
        "Satellite Name": "Test1 1522",
        "Satellite Number": 1522,
        "Semi-Major Axis(m)": 6980739.136638005,
        "Time(s)": 10
    }
]